[{"OBJECT_NAME":"STARLINK-3617","OBJECT_ID":"2022-017N","EPOCH":"2026-03-09T23:22:44.837184","MEAN_MOTION":15.0883174,"ECCENTRICITY":0.00015283,"INCLINATION":53.2205,"RA_OF_ASC_NODE":337.8367,"ARG_OF_PERICENTER":100.659,"MEAN_ANOMALY":259.4575,"EPHEMERIS_TYPE":0,"CLASSIFICATION_TYPE":"U","NORAD_CAT_ID":51780,"ELEMENT_SET_NO":999,"REV_AT_EPOCH":22246,"BSTAR":3.9469586e-5,"MEAN_MOTION_DOT":3.4e-6,"MEAN_MOTION_DDOT":0},{"OBJECT_NAME":"DELTA 1 DEB","OBJECT_ID":"1972-058EG","EPOCH":"2026-03-09T15:29:57.375744","MEAN_MOTION":14.93143945,"ECCENTRICITY":0.0071537,"INCLINATION":98.4418,"RA_OF_ASC_NODE":299.7647,"ARG_OF_PERICENTER":185.1751,"MEAN_ANOMALY":174.8735,"EPHEMERIS_TYPE":0,"CLASSIFICATION_TYPE":"U","NORAD_CAT_ID":8314,"ELEMENT_SET_NO":999,"REV_AT_EPOCH":83297,"BSTAR":0.00043799,"MEAN_MOTION_DOT":4.734e-5,"MEAN_MOTION_DDOT":0}]
